0 COSMOS 862 DEB
1 09896U 76105N   13284.03829474  .00000051  00000-0  00000+0 0  2635
2 09896 065.7605 289.0228 7071847 004.8669 359.4461 01.99611122156838
0 COSMOS 862 DEB
1 09896U 76105N   13288.04616517  .00000421  00000-0  00000+0 0  2644
2 09896 065.7357 288.5827 7071252 004.9265 359.4538 01.99608586156918
0 COSMOS 862 DEB
1 09896U 76105N   13288.04617635  .00000421  00000-0  00000+0 0  2657
2 09896 065.7625 288.5788 7074709 004.7969 359.4685 01.99610767156918
0 COSMOS 862 DEB
1 09896U 76105N   13288.54715325  .00000453  00000-0  00000+0 0  2663
2 09896 065.7492 288.5150 7075167 004.7956 359.4647 01.99610996156921
0 COSMOS 862 DEB
1 09896U 76105N   13296.06158961  .00000857  00000-0  00000+0 0  2686
2 09896 065.7485 287.6816 7079915 004.6616 359.3725 01.99617188157083
